JY1SAT (JO-97)          
1 43803U 18099AX  26068.68634132  .00017774  00000+0  60804-3 0  9996
2 43803  97.4249 131.3625 0004723 256.6795 103.3919 15.30302628398390
STARLINK-31573          
1 59334U 24057Q   26068.36056542  .00002727  00000+0  10867-3 0  9997
2 59334  43.0023 188.5038 0001438 261.0470  99.0218 15.27550253109797
